OBJECT_NAME,OBJECT_ID,EPOCH,MEAN_MOTION,ECCENTRICITY,INCLINATION,RA_OF_ASC_NODE,ARG_OF_PERICENTER,MEAN_ANOMALY,EPHEMERIS_TYPE,CLASSIFICATION_TYPE,NORAD_CAT_ID,ELEMENT_SET_NO,REV_AT_EPOCH,BSTAR,MEAN_MOTION_DOT,MEAN_MOTION_DDOT
COSMOS 2251 DEB,1993-036BRL,2024-04-21T14:14:54.807360,13.55582101,0.038041,73.9572,162.7836,258.4847,258.7218,0,U,38054,999,64810,0.0085807,9.482e-05,0
COSMOS 2251 DEB,1993-036BRM,2024-04-21T04:48:56.351808,14.65356297,0.0080217,74.0118,296.019,213.8319,270.6488,0,U,38055,999,51848,0.0021976,0.00012437,0
COSMOS 2251 DEB,1993-036BRN,2024-04-11T08:13:49.046592,13.78189015,0.0314427,73.9211,233.3831,340.561,18.3729,0,U,38056,999,55830,0.0018935,2.73e-05,0
COSMOS 2251 DEB,1993-036BRS,2024-04-17T01:20:16.320480,14.58259428,0.0065876,74.0473,11.3065,271.6688,87.6932,0,U,38060,999,76319,0.001096,5.19e-05,0
COSMOS 2251 DEB,1993-036BRU,2024-04-21T04:19:27.081120,14.66152083,0.002445,74.0208,35.4812,308.0578,121.0708,0,U,38062,999,54144,0.0045073,0.00024955,0
COSMOS 2251 DEB,1993-036BRW,2024-04-20T14:20:16.243872,14.48851162,0.0052209,74.0271,179.2681,83.7498,276.9605,0,U,38064,999,63134,0.0022134,8.496e-05,0
COSMOS 2251 DEB,1993-036BRX,2024-04-21T11:54:30.262176,14.7823231,0.0016334,74.0185,115.8071,295.8359,225.9176,0,U,38065,999,63386,0.010797,0.00079411,0
COSMOS 2251 DEB,1993-036BRZ,2024-04-16T10:10:36.687072,14.57179786,0.0076137,74.0203,349.8532,287.2537,248.2536,0,U,38067,999,53725,0.00065881,3.063e-05,0
COSMOS 2251 DEB,1993-036BSA,2024-04-21T00:44:24.852480,14.3421252,0.0026914,74.022,330.6186,204.2476,155.7411,0,U,38068,999,58028,0.00063858,1.772e-05,0
COSMOS 2251 DEB,1993-036BSB,2024-04-21T14:42:47.545056,14.67341207,0.0048886,74.1753,165.9507,132.0654,21.4826,0,U,38069,999,66750,0.016796,0.00097913,0
COSMOS 2251 DEB,1993-036BSE,2024-04-15T11:03:34.416000,14.67543108,0.0017664,74.0421,131.7813,310.7157,49.2478,0,U,38190,999,66125,0.0034731,0.00019776,0
COSMOS 2251 DEB,1993-036BSM,2024-04-19T13:27:51.117984,14.44278526,0.0189657,73.9476,71.7101,85.0684,277.2094,0,U,38197,999,76972,0.0093825,0.0004039,0
COSMOS 2251 DEB,1993-036BSP,2024-04-21T22:20:00.244896,13.63101363,0.0373578,73.9558,326.3614,11.6096,349.3338,0,U,38199,999,69337,0.0016122,2.003e-05,0
COSMOS 2251 DEB,1993-036BSY,2024-04-21T14:40:34.000032,14.57801547,0.0012529,74.0173,165.5959,14.4164,141.0946,0,U,38208,999,67268,0.0047379,0.00021741,0
COSMOS 2251 DEB,1993-036BTC,2024-04-17T12:34:40.174176,14.71058029,0.0104935,74.0549,175.9084,41.1677,319.7348,0,U,38212,999,72691,0.00087119,5.803e-05,0
COSMOS 2251 DEB,1993-036BTD,2024-04-12T10:01:49.770624,14.72255631,0.0019503,74.0389,128.981,307.5763,52.3637,0,U,38213,999,51504,0.002288,0.0001449,0
COSMOS 2251 DEB,1993-036BTL,2024-04-20T11:50:43.697184,14.59874756,0.0013397,74.0298,165.8182,346.8547,13.2268,0,U,38220,999,62501,0.0044322,0.00021277,0
COSMOS 2251 DEB,1993-036BTP,2024-04-17T15:01:26.178816,14.27946759,0.0101488,74.0108,211.1112,101.157,322.9465,0,U,38479,999,74274,0.0048631,0.00012732,0
COSMOS 2251 DEB,1993-036BTR,2024-04-16T08:44:23.767872,13.90243977,0.0242096,73.935,330.1516,33.3218,328.2885,0,U,38481,999,50632,0.0029774,4.649e-05,0
COSMOS 2251 DEB,1993-036BTT,2024-04-16T11:05:05.888544,14.23077167,0.0122625,74.2683,10.6926,295.734,63.119,0,U,38483,999,54848,0.0023174,5.626e-05,0
COSMOS 2251 DEB,1993-036BTV,2024-04-19T11:35:37.811328,14.76780737,0.0033623,74.01,290.2242,217.5943,142.2881,0,U,38485,999,8565,0.0048956,0.00034797,0
COSMOS 2251 DEB,1993-036BTW,2024-04-15T18:13:39.638784,14.49234471,0.0042757,73.9528,290.2782,204.3142,169.1287,0,U,38486,999,66582,0.0045623,0.00017608,0
COSMOS 2251 DEB,1993-036BTX,2024-04-20T13:10:42.488832,14.79582393,0.0057109,73.9991,172.311,123.4718,237.1935,0,U,38487,999,57808,0.0031662,0.00024436,0
COSMOS 2251 DEB,1993-036BTY,2024-04-13T06:58:49.077984,14.63158624,0.0068074,74.0452,319.3003,219.9989,262.931,0,U,39109,999,56249,0.00056576,2.978e-05,0
COSMOS 2251 DEB,1993-036BTZ,2024-04-10T22:45:50.106240,14.67151596,0.0104078,73.9609,171.4416,189.036,346.4037,0,U,39110,999,62347,0.00038395,2.307e-05,0
COSMOS 2251 DEB,1993-036BUA,2024-04-16T10:01:52.008384,14.62446295,0.0019774,74.0276,161.8006,355.635,4.4641,0,U,39111,999,59252,0.0041981,0.00021356,0
COSMOS 2251 DEB,1993-036BUC,2024-04-20T01:45:24.638976,14.71677488,0.0061679,74.0039,248.4319,197.2859,162.6214,0,U,39546,999,55523,0.0058374,0.00037647,0
COSMOS 2251 DEB,1993-036BUD,2024-04-16T10:03:54.178848,14.6253166,0.0011977,74.0176,134.629,348.32,75.673,0,U,39547,999,55064,0.0043054,0.00021908,0
COSMOS 2251 DEB,1993-036BUJ,2024-04-13T03:46:54.251904,14.87828515,0.0021692,74.0188,272.2272,221.1326,263.0153,0,U,39552,999,55514,0.003463,0.00031905,0
COSMOS 2251 DEB,1993-036BUK,2024-04-17T21:08:31.559712,13.95436843,0.0213349,74.0276,292.7896,204.2915,154.8046,0,U,39553,999,67178,0.0017059,2.775e-05,0
COSMOS 2251 DEB,1993-036BUL,2024-04-18T11:20:12.152832,14.69749752,0.001558,74.0328,28.2224,300.0545,179.7696,0,U,39554,999,55414,0.0040711,0.0002438,0
COSMOS 2251 DEB,1993-036BUN,2024-04-16T06:59:25.788480,14.4378247,0.0175992,73.9364,316.8464,204.3895,154.8862,0,U,39583,999,52987,0.0030603,0.00012568,0
COSMOS 2251 DEB,1993-036BUQ,2024-04-09T01:21:11.584512,14.55728951,0.0071116,74.0462,25.2173,301.369,58.0528,0,U,39585,999,53595,0.0003281,1.454e-05,0
COSMOS 2251 DEB,1993-036BUR,2024-04-12T03:05:47.368608,14.18909598,0.0104061,74.0101,240.8704,156.4941,18.9684,0,U,39586,999,76225,0.00069796,1.51e-05,0
COSMOS 2251 DEB,1993-036BUT,2024-04-15T21:15:45.872640,14.59110636,0.0057772,74.1241,327.7949,52.8537,320.9164,0,U,39588,999,63810,0.0060325,0.00029155,0
COSMOS 2251 DEB,1993-036BUV,2024-04-21T18:18:44.755200,15.11715521,0.0022333,74.0029,26.4058,191.1621,200.7535,0,U,39590,999,53984,0.018623,0.00334057,0
COSMOS 2251 DEB,1993-036BUW,2024-04-21T19:28:51.081312,14.38728494,0.00306,74.0203,277.207,176.9484,248.5705,0,U,39591,999,53138,0.0018578,5.712e-05,0
COSMOS 2251 DEB,1993-036BUX,2024-04-10T18:56:11.054112,14.3872707,0.0017639,74.0309,298.691,175.5225,184.6091,0,U,40218,999,53090,0.00035463,1.064e-05,0
COSMOS 2251 DEB,1993-036BVC,2024-04-19T16:06:46.677312,14.59365706,0.002782,73.9567,198.6094,138.3891,13.5856,0,U,40223,999,50475,0.0076255,0.00036455,0
COSMOS 2251 DEB,1993-036BVD,2024-04-16T08:53:42.906336,14.79978555,0.0098477,73.9916,337.8886,69.3844,106.1028,0,U,40224,999,50964,0.0050642,0.00041803,0
COSMOS 2251 DEB,1993-036BVH,2024-04-21T20:16:13.079712,14.38619661,0.0024341,74.0545,287.647,142.2735,283.6939,0,U,40228,999,50286,0.0012121,3.701e-05,0
COSMOS 2251 DEB,1993-036BVK,2024-04-14T04:30:06.079104,14.43028173,0.0021078,74.0456,280.8666,130.2978,349.8298,0,U,40230,999,50186,0.0011596,3.871e-05,0
COSMOS 2251 DEB,1993-036BVN,2024-04-20T03:32:13.111008,14.48399382,0.0057219,73.9445,166.5024,13.0543,347.208,0,U,40233,999,50394,0.0034097,0.00013032,0
COSMOS 2251 DEB,1993-036BVR,2024-04-11T03:01:19.677216,13.22279656,0.0544506,73.543,24.3319,320.3639,35.8802,0,U,40236,999,45545,0.0019487,1.756e-05,0
COSMOS 2251 DEB,1993-036BVS,2024-04-15T10:06:23.216256,14.61573738,0.0012803,74.0428,162.8848,330.907,42.3948,0,U,40237,999,50539,0.0036094,0.00017969,0
COSMOS 2251 DEB,1993-036BVT,2024-04-21T18:09:56.161728,13.21518841,0.0565242,73.9878,262.6622,349.7938,9.2045,0,U,40238,999,46098,0.0028999,2.758e-05,0
COSMOS 2251 DEB,1993-036BVU,2024-04-19T01:11:30.255936,14.5780155,0.009266,74.0342,346.6732,250.4127,178.5932,0,U,40239,999,50814,0.00068808,3.308e-05,0
COSMOS 2251 DEB,1993-036BVV,2024-04-20T08:39:01.178784,14.55929548,0.0022138,74.0461,118.3955,3.1212,61.108,0,U,40792,999,54394,0.0029691,0.00013085,0
COSMOS 2251 DEB,1993-036BVW,2024-04-11T09:38:48.555168,14.02177436,0.0220198,73.9791,153.308,81.9709,280.6346,0,U,40793,999,59678,0.0006847,1.273e-05,0
COSMOS 2251 DEB,1993-036BVX,2024-04-09T18:52:41.081376,14.57066839,0.0030093,73.9858,241.3148,137.2032,293.56,0,U,40794,999,52911,0.0031664,0.00014347,0
COSMOS 2251 DEB,1993-036BVZ,2024-04-17T17:00:42.177600,14.69232967,0.0068623,74.0188,245.8792,174.3002,247.8388,0,U,40796,999,67246,0.0027339,0.00016713,0
COSMOS 2251 DEB,1993-036BWA,2024-04-16T16:13:11.455392,14.90985821,0.0101266,73.9271,255.8586,312.752,58.926,0,U,40797,999,64541,0.0013132,0.00014306,0
COSMOS 2251 DEB,1993-036BWC,2024-04-11T16:18:44.642304,14.86762931,0.0139893,73.9292,251.5192,277.5007,81.0297,0,U,40799,999,40878,0.00039581,4.173e-05,0
COSMOS 2251 DEB,1993-036BWF,2024-04-16T16:08:42.223488,14.68097145,0.0074229,74.0444,251.9439,147.1228,213.4593,0,U,40802,999,55498,0.0023587,0.00014123,0
COSMOS 2251 DEB,1993-036BWG,2024-04-16T17:10:54.213600,14.48837906,0.0032562,74.0129,110.5046,115.0658,245.3887,0,U,40803,999,49980,0.00067448,2.539e-05,0
COSMOS 2251 DEB,1993-036BWM,2024-04-21T06:10:54.651072,14.52377949,0.0017146,74.0503,211.4894,37.2881,352.33,0,U,40808,999,54853,0.0034273,0.00013986,0
COSMOS 2251 DEB,1993-036BWP,2024-04-21T11:00:26.959104,14.51656001,0.0018248,74.0377,132.0497,62.9287,297.3734,0,U,40810,999,52949,0.0017156,6.874e-05,0
COSMOS 2251 DEB,1993-036BWT,2024-04-15T19:10:27.488928,14.4853767,0.004114,74.0457,135.649,46.0068,314.4471,0,U,46271,999,75858,0.00044297,1.654e-05,0
COSMOS 2251 DEB,1993-036BWU,2024-04-13T05:18:12.967488,14.36576181,0.0121354,73.9209,57.6689,110.3498,251.0741,0,U,46430,999,70896,0.0023366,7.453e-05,0
COSMOS 2251 DEB,1993-036BWW,2024-04-09T11:03:11.308320,13.34928275,0.0481106,73.8756,354.9094,215.7034,324.1678,0,U,46432,999,58789,0.00047726,4.42e-06,0
COSMOS 2251 DEB,1993-036BXC,2024-04-17T10:15:48.278304,14.40133635,0.0158801,73.9852,12.2758,339.2632,141.151,0,U,47048,999,50951,0.005112,0.00018757,0
COSMOS 2251 DEB,1993-036BXF,2024-04-15T05:21:49.974048,13.63360223,0.0353098,74.1027,92.1213,345.8208,25.9879,0,U,47051,999,60655,0.0049251,5.891e-05,0
COSMOS 2251 DEB,1993-036BXG,2024-04-21T00:23:34.178784,14.33575534,0.0062403,74.052,359.9481,223.513,198.8017,0,U,47052,999,53174,0.00068703,1.918e-05,0
